<?xml version="1.0" encoding="UTF-8"?>
<ndm xmlns:xsi="http://www.w3.org/2001/XMLSchema-instance" xsi:noNamespaceSchemaLocation="https://sanaregistry.org/r/ndmxml_unqualified/ndmxml-2.0.0-master-2.0.xsd">
<omm id="CCSDS_OMM_VERS" version="2.0">
<header><CREATION_DATE/><ORIGINATOR/></header><body><segment><metadata><OBJECT_NAME>ONEWEB-0085</OBJECT_NAME><OBJECT_ID>2020-020Q</OBJECT_ID><CENTER_NAME>EARTH</CENTER_NAME><REF_FRAME>TEME</REF_FRAME><TIME_SYSTEM>UTC</TIME_SYSTEM><MEAN_ELEMENT_THEORY>SGP4</MEAN_ELEMENT_THEORY></metadata><data><meanElements><EPOCH>2023-11-04T23:08:36.399552</EPOCH><MEAN_MOTION>13.11415393</MEAN_MOTION><ECCENTRICITY>.0001539</ECCENTRICITY><INCLINATION>87.9001</INCLINATION><RA_OF_ASC_NODE>210.8488</RA_OF_ASC_NODE><ARG_OF_PERICENTER>68.1494</ARG_OF_PERICENTER><MEAN_ANOMALY>291.9797</MEAN_ANOMALY></meanElements><tleParameters><EPHEMERIS_TYPE>0</EPHEMERIS_TYPE><CLASSIFICATION_TYPE>U</CLASSIFICATION_TYPE><NORAD_CAT_ID>45438</NORAD_CAT_ID><ELEMENT_SET_NO>999</ELEMENT_SET_NO><REV_AT_EPOCH>17747</REV_AT_EPOCH><BSTAR>.98058E-3</BSTAR><MEAN_MOTION_DOT>.36E-5</MEAN_MOTION_DOT><MEAN_MOTION_DDOT>0</MEAN_MOTION_DDOT></tleParameters></data></segment></body></omm>
<omm id="CCSDS_OMM_VERS" version="2.0">
<header><CREATION_DATE/><ORIGINATOR/></header><body><segment><metadata><OBJECT_NAME>ONEWEB-0096</OBJECT_NAME><OBJECT_ID>2020-020R</OBJECT_ID><CENTER_NAME>EARTH</CENTER_NAME><REF_FRAME>TEME</REF_FRAME><TIME_SYSTEM>UTC</TIME_SYSTEM><MEAN_ELEMENT_THEORY>SGP4</MEAN_ELEMENT_THEORY></metadata><data><meanElements><EPOCH>2023-11-04T17:50:41.119872</EPOCH><MEAN_MOTION>13.11418270</MEAN_MOTION><ECCENTRICITY>.0001755</ECCENTRICITY><INCLINATION>87.9000</INCLINATION><RA_OF_ASC_NODE>210.8663</RA_OF_ASC_NODE><ARG_OF_PERICENTER>63.6437</ARG_OF_PERICENTER><MEAN_ANOMALY>296.4871</MEAN_ANOMALY></meanElements><tleParameters><EPHEMERIS_TYPE>0</EPHEMERIS_TYPE><CLASSIFICATION_TYPE>U</CLASSIFICATION_TYPE><NORAD_CAT_ID>45439</NORAD_CAT_ID><ELEMENT_SET_NO>999</ELEMENT_SET_NO><REV_AT_EPOCH>17743</REV_AT_EPOCH><BSTAR>-.57604E-4</BSTAR><MEAN_MOTION_DOT>-.8E-7</MEAN_MOTION_DOT><MEAN_MOTION_DDOT>0</MEAN_MOTION_DDOT></tleParameters></data></segment></body></omm>
<omm id="CCSDS_OMM_VERS" version="2.0">
<header><CREATION_DATE/><ORIGINATOR/></header><body><segment><metadata><OBJECT_NAME>ONEWEB-0037</OBJECT_NAME><OBJECT_ID>2020-020S</OBJECT_ID><CENTER_NAME>EARTH</CENTER_NAME><REF_FRAME>TEME</REF_FRAME><TIME_SYSTEM>UTC</TIME_SYSTEM><MEAN_ELEMENT_THEORY>SGP4</MEAN_ELEMENT_THEORY></metadata><data><meanElements><EPOCH>2023-11-04T19:14:51.248256</EPOCH><MEAN_MOTION>13.11417351</MEAN_MOTION><ECCENTRICITY>.0001979</ECCENTRICITY><INCLINATION>87.9003</INCLINATION><RA_OF_ASC_NODE>210.8516</RA_OF_ASC_NODE><ARG_OF_PERICENTER>74.4104</ARG_OF_PERICENTER><MEAN_ANOMALY>285.7243</MEAN_ANOMALY></meanElements><tleParameters><EPHEMERIS_TYPE>0</EPHEMERIS_TYPE><CLASSIFICATION_TYPE>U</CLASSIFICATION_TYPE><NORAD_CAT_ID>45440</NORAD_CAT_ID><ELEMENT_SET_NO>999</ELEMENT_SET_NO><REV_AT_EPOCH>17747</REV_AT_EPOCH><BSTAR>.17743E-2</BSTAR><MEAN_MOTION_DOT>.642E-5</MEAN_MOTION_DOT><MEAN_MOTION_DDOT>0</MEAN_MOTION_DDOT></tleParameters></data></segment></body></omm>
<omm id="CCSDS_OMM_VERS" version="2.0">
<header><CREATION_DATE/><ORIGINATOR/></header><body><segment><metadata><OBJECT_NAME>ONEWEB-0042</OBJECT_NAME><OBJECT_ID>2020-020T</OBJECT_ID><CENTER_NAME>EARTH</CENTER_NAME><REF_FRAME>TEME</REF_FRAME><TIME_SYSTEM>UTC</TIME_SYSTEM><MEAN_ELEMENT_THEORY>SGP4</MEAN_ELEMENT_THEORY></metadata><data><meanElements><EPOCH>2023-11-04T23:06:04.451328</EPOCH><MEAN_MOTION>13.11428499</MEAN_MOTION><ECCENTRICITY>.0002465</ECCENTRICITY><INCLINATION>87.9003</INCLINATION><RA_OF_ASC_NODE>210.8394</RA_OF_ASC_NODE><ARG_OF_PERICENTER>67.3742</ARG_OF_PERICENTER><MEAN_ANOMALY>292.7647</MEAN_ANOMALY></meanElements><tleParameters><EPHEMERIS_TYPE>0</EPHEMERIS_TYPE><CLASSIFICATION_TYPE>U</CLASSIFICATION_TYPE><NORAD_CAT_ID>45441</NORAD_CAT_ID><ELEMENT_SET_NO>999</ELEMENT_SET_NO><REV_AT_EPOCH>17746</REV_AT_EPOCH><BSTAR>-.70999E-2</BSTAR><MEAN_MOTION_DOT>-.2503E-4</MEAN_MOTION_DOT><MEAN_MOTION_DDOT>0</MEAN_MOTION_DDOT></tleParameters></data></segment></body></omm>
<omm id="CCSDS_OMM_VERS" version="2.0">
<header><CREATION_DATE/><ORIGINATOR/></header><body><segment><metadata><OBJECT_NAME>ONEWEB-0098</OBJECT_NAME><OBJECT_ID>2020-020U</OBJECT_ID><CENTER_NAME>EARTH</CENTER_NAME><REF_FRAME>TEME</REF_FRAME><TIME_SYSTEM>UTC</TIME_SYSTEM><MEAN_ELEMENT_THEORY>SGP4</MEAN_ELEMENT_THEORY></metadata><data><meanElements><EPOCH>2023-11-04T22:56:56.978592</EPOCH><MEAN_MOTION>13.11414860</MEAN_MOTION><ECCENTRICITY>.0001518</ECCENTRICITY><INCLINATION>87.9008</INCLINATION><RA_OF_ASC_NODE>210.8459</RA_OF_ASC_NODE><ARG_OF_PERICENTER>71.9758</ARG_OF_PERICENTER><MEAN_ANOMALY>288.1535</MEAN_ANOMALY></meanElements><tleParameters><EPHEMERIS_TYPE>0</EPHEMERIS_TYPE><CLASSIFICATION_TYPE>U</CLASSIFICATION_TYPE><NORAD_CAT_ID>45442</NORAD_CAT_ID><ELEMENT_SET_NO>999</ELEMENT_SET_NO><REV_AT_EPOCH>17744</REV_AT_EPOCH><BSTAR>.18815E-2</BSTAR><MEAN_MOTION_DOT>.68E-5</MEAN_MOTION_DOT><MEAN_MOTION_DDOT>0</MEAN_MOTION_DDOT></tleParameters></data></segment></body></omm>
<omm id="CCSDS_OMM_VERS" version="2.0">
<header><CREATION_DATE/><ORIGINATOR/></header><body><segment><metadata><OBJECT_NAME>ONEWEB-0055</OBJECT_NAME><OBJECT_ID>2020-020V</OBJECT_ID><CENTER_NAME>EARTH</CENTER_NAME><REF_FRAME>TEME</REF_FRAME><TIME_SYSTEM>UTC</TIME_SYSTEM><MEAN_ELEMENT_THEORY>SGP4</MEAN_ELEMENT_THEORY></metadata><data><meanElements><EPOCH>2023-11-04T18:59:39.358464</EPOCH><MEAN_MOTION>13.11419181</MEAN_MOTION><ECCENTRICITY>.0001613</ECCENTRICITY><INCLINATION>87.9009</INCLINATION><RA_OF_ASC_NODE>210.8828</RA_OF_ASC_NODE><ARG_OF_PERICENTER>68.1824</ARG_OF_PERICENTER><MEAN_ANOMALY>291.9475</MEAN_ANOMALY></meanElements><tleParameters><EPHEMERIS_TYPE>0</EPHEMERIS_TYPE><CLASSIFICATION_TYPE>U</CLASSIFICATION_TYPE><NORAD_CAT_ID>45443</NORAD_CAT_ID><ELEMENT_SET_NO>999</ELEMENT_SET_NO><REV_AT_EPOCH>17739</REV_AT_EPOCH><BSTAR>.11261E-2</BSTAR><MEAN_MOTION_DOT>.412E-5</MEAN_MOTION_DOT><MEAN_MOTION_DDOT>0</MEAN_MOTION_DDOT></tleParameters></data></segment></body></omm>
<omm id="CCSDS_OMM_VERS" version="2.0">
<header><CREATION_DATE/><ORIGINATOR/></header><body><segment><metadata><OBJECT_NAME>ONEWEB-0093</OBJECT_NAME><OBJECT_ID>2020-020W</OBJECT_ID><CENTER_NAME>EARTH</CENTER_NAME><REF_FRAME>TEME</REF_FRAME><TIME_SYSTEM>UTC</TIME_SYSTEM><MEAN_ELEMENT_THEORY>SGP4</MEAN_ELEMENT_THEORY></metadata><data><meanElements><EPOCH>2023-11-04T18:21:03.918816</EPOCH><MEAN_MOTION>13.11417608</MEAN_MOTION><ECCENTRICITY>.0001709</ECCENTRICITY><INCLINATION>87.9004</INCLINATION><RA_OF_ASC_NODE>210.8700</RA_OF_ASC_NODE><ARG_OF_PERICENTER>61.8262</ARG_OF_PERICENTER><MEAN_ANOMALY>298.3038</MEAN_ANOMALY></meanElements><tleParameters><EPHEMERIS_TYPE>0</EPHEMERIS_TYPE><CLASSIFICATION_TYPE>U</CLASSIFICATION_TYPE><NORAD_CAT_ID>45444</NORAD_CAT_ID><ELEMENT_SET_NO>999</ELEMENT_SET_NO><REV_AT_EPOCH>17745</REV_AT_EPOCH><BSTAR>-.28483E-2</BSTAR><MEAN_MOTION_DOT>-.997E-5</MEAN_MOTION_DOT><MEAN_MOTION_DDOT>0</MEAN_MOTION_DDOT></tleParameters></data></segment></body></omm>
<omm id="CCSDS_OMM_VERS" version="2.0">
<header><CREATION_DATE/><ORIGINATOR/></header><body><segment><metadata><OBJECT_NAME>ONEWEB-0029</OBJECT_NAME><OBJECT_ID>2020-020X</OBJECT_ID><CENTER_NAME>EARTH</CENTER_NAME><REF_FRAME>TEME</REF_FRAME><TIME_SYSTEM>UTC</TIME_SYSTEM><MEAN_ELEMENT_THEORY>SGP4</MEAN_ELEMENT_THEORY></metadata><data><meanElements><EPOCH>2023-11-04T18:49:07.650048</EPOCH><MEAN_MOTION>13.11420274</MEAN_MOTION><ECCENTRICITY>.0001937</ECCENTRICITY><INCLINATION>87.9008</INCLINATION><RA_OF_ASC_NODE>210.8763</RA_OF_ASC_NODE><ARG_OF_PERICENTER>68.3555</ARG_OF_PERICENTER><MEAN_ANOMALY>291.7779</MEAN_ANOMALY></meanElements><tleParameters><EPHEMERIS_TYPE>0</EPHEMERIS_TYPE><CLASSIFICATION_TYPE>U</CLASSIFICATION_TYPE><NORAD_CAT_ID>45445</NORAD_CAT_ID><ELEMENT_SET_NO>999</ELEMENT_SET_NO><REV_AT_EPOCH>17743</REV_AT_EPOCH><BSTAR>.36783E-3</BSTAR><MEAN_MOTION_DOT>.143E-5</MEAN_MOTION_DOT><MEAN_MOTION_DDOT>0</MEAN_MOTION_DDOT></tleParameters></data></segment></body></omm>
<omm id="CCSDS_OMM_VERS" version="2.0">
<header><CREATION_DATE/><ORIGINATOR/></header><body><segment><metadata><OBJECT_NAME>ONEWEB-0068</OBJECT_NAME><OBJECT_ID>2020-020Y</OBJECT_ID><CENTER_NAME>EARTH</CENTER_NAME><REF_FRAME>TEME</REF_FRAME><TIME_SYSTEM>UTC</TIME_SYSTEM><MEAN_ELEMENT_THEORY>SGP4</MEAN_ELEMENT_THEORY></metadata><data><meanElements><EPOCH>2023-11-04T18:12:54.593280</EPOCH><MEAN_MOTION>13.11416631</MEAN_MOTION><ECCENTRICITY>.0001734</ECCENTRICITY><INCLINATION>87.9001</INCLINATION><RA_OF_ASC_NODE>210.8694</RA_OF_ASC_NODE><ARG_OF_PERICENTER>65.7887</ARG_OF_PERICENTER><MEAN_ANOMALY>294.3422</MEAN_ANOMALY></meanElements><tleParameters><EPHEMERIS_TYPE>0</EPHEMERIS_TYPE><CLASSIFICATION_TYPE>U</CLASSIFICATION_TYPE><NORAD_CAT_ID>45446</NORAD_CAT_ID><ELEMENT_SET_NO>999</ELEMENT_SET_NO><REV_AT_EPOCH>17737</REV_AT_EPOCH><BSTAR>-.1597E-2</BSTAR><MEAN_MOTION_DOT>-.553E-5</MEAN_MOTION_DOT><MEAN_MOTION_DDOT>0</MEAN_MOTION_DDOT></tleParameters></data></segment></body></omm>

</ndm>
